SL-3 R/B                
1 19046U 88032B   18266.95790520 -.00000258  00000-0 -14718-4 0  9993
2 19046  97.4723 303.7680 0036623 192.6055 167.4259 15.02482114641989
SL-16 R/B               
1 19120U 88039B   18266.87912636 -.00000121  00000-0 -34906-4 0  9998
2 19120  71.0129  65.1532 0022798 202.5892 157.4232 14.19189200571904
COSMOS 1953             
1 19210U 88050A   18266.69634407  .00000061  00000-0  21649-5 0  9990
2 19210  82.5148 303.8530 0015150 115.6653 244.6141 15.05621496626447
SL-8 R/B                
1 19257U 88053B   18266.95902431  .00000132  00000-0  52929-4 0  9991
2 19257  74.0473  83.9068 0021069 221.8046 247.1042 14.37411520585125
COSMOS 1975             
1 19573U 88093A   18266.94451316  .00000002  00000-0 -19224-5 0  9995
2 19573  82.5178 256.6494 0015131 153.4101 206.7905 15.04536414608398
SL-14 R/B               
1 19574U 88093B   18266.94208431  .00000077  00000-0  64237-5 0  9999
2 19574  82.5301  71.4689 0022398  31.2243  81.6644 14.83275517597105
SL-16 R/B               
1 19650U 88102B   18266.92454365  .00000079  00000-0  64399-4 0  9992
2 19650  70.9970 119.9766 0015169 204.9647 155.0744 14.15772853541355
INTERCOSMOS 24          
1 20261U 89080A   18266.89075127  .00000119  00000-0  25680-4 0  9994
2 20261  82.5979  69.6282 1204200 107.3091 266.3133 12.56013283324583
SL-14 R/B               
1 20262U 89080C   18266.62825118  .00000049  00000-0  14695-4 0  9995
2 20262  82.5913 119.2811 1236132 280.0065  66.4048 12.48902326319990
DELTA 1 R/B             
1 20323U 89089B   18266.65300426  .00000044  00000-0  20394-4 0  9993
2 20323  97.0983 144.7192 0073236  63.6059 297.2631 14.48271180501277
DELTA 2 R/B(1)          
1 20453U 90008B   18266.79656296  .00000763  00000-0  47013-4 0  9999
2 20453  35.6254  23.6463 0284368  68.1373 294.9328 14.84365459517104
COSMOS 2058             
1 20465U 90010A   18266.76577464  .00000223  00000-0  16611-4 0  9992
2 20465  82.4914 162.0493 0015607 167.5587 192.6024 14.97769380533616
SL-14 R/B               
1 20466U 90010B   18266.69527242  .00000097  00000-0  94169-5 0  9998
2 20466  82.5014 298.9034 0019030 254.9609 104.9499 14.81334164525051
SL-14 R/B               
1 20511U 90018B   18266.91642845  .00000083  00000-0  78405-5 0  9999
2 20511  82.5215 242.2415 0018429  36.6817  20.9618 14.79991256519553
HST                     
1 20580U 90037B   18266.92182508  .00000509  00000-0  20198-4 0  9990
2 20580  28.4687 182.3875 0002914 122.2631 324.0582 15.09098703360318
SL-16 R/B               
1 20625U 90046B   18266.43685303  .00000233  00000-0  14556-3 0  9991
2 20625  70.9975 256.8528 0012540 129.2075 231.0163 14.14635571463093
COSMOS 2084             
1 20663U 90055A   18266.89632216  .00000080  00000-0  25243-4 0  9994
2 20663  62.7922 120.0972 0112564 136.4776 224.5270 14.91883368528986
SL-6 R/B(2)             
1 20666U 90055D   18266.85982381  .00000046  00000-0  22546-4 0  9999
2 20666  62.7865  37.9735 0082708 158.7246 201.7321 14.92170697530895
SL-8 R/B                
1 20775U 90078B   18266.82332856  .00001602  00000-0  77857-4 0  9992
2 20775  82.9310  27.5502 0581052 351.9659   7.2509 14.32506680415116
SL-8 R/B                
1 21088U 91006B   18266.92379337  .00000069  00000-0  53918-4 0  9996
2 21088  82.9444  35.4847 0023878 101.7282  15.0691 13.77096153389152
OKEAN-3                 
1 21397U 91039A   18266.89608499  .00000239  00000-0  20561-4 0  9992
2 21397  82.5211  57.8553 0019199 123.7980 236.5071 14.92711003457890
COSMOS 2151             
1 21422U 91042A   18266.78530894  .00000139  00000-0  11214-4 0  9990
2 21422  82.5026 165.2340 0013991 180.2036 179.9180 14.91983731477627
SL-14 R/B               
1 21423U 91042B   18266.94760935  .00000037  00000-0  18864-5 0  9996
2 21423  82.4918 248.0157 0017915 166.3532 193.8169 14.79742331450122
ERS-1                   
1 21574U 91050A   18266.86454132 -.00000000  00000-0  14442-4 0  9990
2 21574  98.5122 213.1349 0033420  13.3545 346.8519 14.37664800424223
ARIANE 40 R/B           
1 21610U 91050F   18266.79753331  .00000006  00000-0  15626-4 0  9996
2 21610  98.5461 329.5541 0003244  18.1514  92.2142 14.40849314426591
INTERCOSMOS 25          
1 21819U 91086A   18266.84274382  .00000331  00000-0  63447-4 0  9991
2 21819  82.5930 145.0114 1516430 179.6936 180.5463 12.04929409168098
SL-14 R/B               
1 21820U 91086B   18266.88851202  .00000214  00000-0  37567-4 0  9993
2 21820  82.5630 204.9279 1577330  26.2511 341.0456 11.93402885162097
SL-8 R/B                
1 21876U 92008B   18266.73365153 -.00000005  00000-0 -20599-4 0  9995
2 21876  82.9256 132.7021 0034669 178.2278 246.5785 13.75630056334886
SL-8 R/B                
1 21938U 92020B   18266.80505726  .00000052  00000-0  38753-4 0  9999
2 21938  82.9339  16.2645 0028643 341.1853 129.0840 13.75268346326719
SL-16 R/B               
1 22220U 92076B   18266.95780353 -.00000125  00000-0 -38596-4 0  9990
2 22220  71.0006 163.0172 0015178 284.1104 154.5617 14.16436803336115
SL-16 R/B               
1 22285U 92093B   18266.61835098  .00000295  00000-0  17661-3 0  9995
2 22285  71.0224 320.1095 0003396 171.7217 188.3963 14.15025428327815
COSMOS 2228             
1 22286U 92094A   18266.68427778  .00000238  00000-0  23084-4 0  9990
2 22286  82.5183 296.9306 0021833  26.6951 333.5385 14.87971520391412
SL-16 R/B               
1 22566U 93016B   18266.89407488 -.00000214  00000-0 -86028-4 0  9998
2 22566  71.0072 173.5624 0009221 160.7133 199.4340 14.14954554316870
COSMOS 2242             
1 22626U 93024A   18266.73658694  .00000190  00000-0  18020-4 0  9992
2 22626  82.5228 324.7533 0019549  26.5817 333.6398 14.87834826374775
SL-16 R/B               
1 22803U 93059B   18266.66597386 -.00000248  00000-0 -99658-4 0  9991
2 22803  70.9928 352.7685 0015900  32.9408 327.2703 14.16798813293678
ARIANE 40 R/B           
1 22830U 93061H   18266.92178853 -.00000030  00000-0  61994-5 0  9998
2 22830  98.8510 297.1184 0011128  19.3168 340.8434 14.31419685304332
COSMOS 2278             
1 23087U 94023A   18266.92824500 -.00000223  00000-0 -92623-4 0  9996
2 23087  71.0524 109.7264 0010862 237.7437 122.2633 14.13777452259792
SL-16 R/B               
1 23088U 94023B   18266.77230107 -.00000324  00000-0 -14356-3 0  9992
2 23088  71.0021  29.0520 0001445 160.1487 199.9692 14.14669712260838
SL-16 R/B               
1 23343U 94074B   18266.75158470  .00000041  00000-0  13274-4 0  9995
2 23343  98.0946 311.7690 0007554  35.2316  79.7883 14.76744847285246
SL-16 R/B               
1 23405U 94077B   18266.67138978 -.00000046  00000-0  11953-5 0  9998
2 23405  70.9846 320.9234 0004320 307.5466  52.5264 14.15206701230830
ERS-2                   
1 23560U 95021A   18266.77476853  .00001222  00000-0  57395-4 0  9993
2 23560  98.5262 326.5081 0004076 151.7466 208.3988 15.21996268245842
ARIANE 40+ R/B          
1 23561U 95021B   18266.93345928  .00000029  00000-0  24880-4 0  9997
2 23561  98.7897 283.8727 0006364 336.1865  86.8315 14.37888971227676
SL-16 R/B               
1 23705U 95058B   18266.94603455  .00000050  00000-0  50393-4 0  9992
2 23705  71.0218 136.0326 0014421 305.5722  54.4056 14.15117549182491
SL-16 R/B               
1 24298U 96051B   18266.94597016 -.00000123  00000-0 -40381-4 0  9998
2 24298  70.8300 164.4763 0018109 219.4652 140.5150 14.12405391137045
ORBVIEW 2 (SEASTAR)     
1 24883U 97037A   18266.88586075  .00000022  00000-0  23937-4 0  9993
2 24883  98.5690  15.0854 0002804 151.8263 208.3074 14.33469835118344
SL-16 R/B               
1 25400U 98043G   18266.84901952 -.00000032  00000-0  45935-5 0  9993
2 25400  98.5395 206.6998 0010455  26.6916 333.4801 14.25432113 51124
SL-16 R/B               
1 25407U 98045B   18266.92385214  .00000243  00000-0  14792-3 0  9996
2 25407  71.0111 146.8931 0009358 230.1655 129.8645 14.15778870 41558
ISS (ZARYA)             
1 25544U 98067A   18266.92781133  .00003285  00000-0  57656-4 0  9998
2 25544  51.6405 246.6430 0003959 198.2275 219.5777 15.53726614133878
SL-8 R/B                
1 25723U 99022C   18266.92154250  .00011452  00000-0  13891-3 0  9990
2 25723  48.4147 201.5175 0007591 122.4545 237.7138 15.60988419 78473
CZ-4B R/B               
1 25732U 99025C   18266.95342613 -.00000013  00000-0  16172-4 0  9996
2 25732  98.9928 279.4343 0036838 210.3432 207.0063 14.17654168  2206
OKEAN-O                 
1 25860U 99039A   18266.94175583  .00000046  00000-0  14285-4 0  9990
2 25860  98.2216 264.2913 0001897  90.3378 269.8049 14.76565653 32172
SL-16 R/B               
1 25861U 99039B   18266.90708260  .00000026  00000-0  11011-4 0  9993
2 25861  98.1621 248.0521 0016448  34.1232  23.7893 14.78495658 34153
TERRA                   
1 25994U 99068A   18266.79362592 -.00000038  00000-0  16570-5 0  9993
2 25994  98.1984 340.1971 0001236  88.3462 271.7863 14.57120659998187
ENVISAT                 
1 27386U 02009A   18266.70868366  .00000002  00000-0  14353-4 0  9996
2 27386  98.1773 296.0875 0001219  88.9979  21.1045 14.37930132867684
IDEFIX & ARIANE 42P R/B 
1 27422U 02021B   18266.95319001 -.00000039  00000-0  79380-6 0  9999
2 27422  98.2662 247.4087 0011378 306.6890  53.3247 14.29265557854812
AQUA                    
1 27424U 02022A   18266.96423969  .00000055  00000-0  22252-4 0  9993
2 27424  98.2012 206.6478 0002785 113.7608 322.7349 14.57134093871760
CZ-4B R/B               
1 27432U 02024C   18266.91527017 -.00000028  00000-0  89600-5 0  9990
2 27432  99.0437 249.6295 0050750 160.4682 252.1098 14.14070034844257
MIDORI II (ADEOS-II)    
1 27597U 02056A   18266.91026682  .00000031  00000-0  29983-4 0  9999
2 27597  98.4318 223.4746 0002106  66.3832 293.7570 14.27364904821576
H-2A R/B                
1 27601U 02056E   18266.79542845  .00000047  00000-0  32236-4 0  9997
2 27601  98.3178 322.0261 0072057   0.5966 107.9655 14.31855788824150
